[
  {
    "COMMENT": "GENERATED VIA SPACETRACK.ORG API",
    "ORIGINATOR": "18 SPCS",
    "NORAD_CAT_ID": "27386",
    "OBJECT_NAME": "ENVISAT",
    "OBJECT_TYPE": "PAYLOAD",
    "CLASSIFICATION_TYPE": "U",
    "INTLDES": "02009A",
    "EPOCH": "2023-05-05 22:02:39",
    "EPOCH_MICROSECONDS": "172416",
    "MEAN_MOTION": "14.38333549",
    "ECCENTRICITY": "0.0001296",
    "INCLINATION": "98.228",
    "RA_OF_ASC_NODE": "97.6652",
    "ARG_OF_PERICENTER": "85.2106",
    "MEAN_ANOMALY": "332.855",
    "EPHEMERIS_TYPE": "0",
    "ELEMENT_SET_NO": "999",
    "REV_AT_EPOCH": "10988",
    "BSTAR": "0.0001125",
    "MEAN_MOTION_DOT": "0.00000301",
    "MEAN_MOTION_DDOT": "0",
    "FILE": "3901863",
    "TLE_LINE0": "0 ENVISAT",
    "TLE_LINE1": "1 27386U 02009A   23125.91850894  .00000301  00000-0  11250-3 0  9990",
    "TLE_LINE2": "2 27386  98.2280  97.6652 0001296  85.2106 332.8550 14.38333549109887",
    "OBJECT_ID": "2002-009A",
    "OBJECT_NUMBER": "27386",
    "SEMIMAJOR_AXIS": "7142.147",
    "PERIOD": "100.116",
    "APOGEE": "764.937",
    "PERIGEE": "763.086",
    "DECAYED": "0"
  },
  {
    "COMMENT": "GENERATED VIA SPACETRACK.ORG API",
    "ORIGINATOR": "18 SPCS",
    "NORAD_CAT_ID": "27386",
    "OBJECT_NAME": "ENVISAT",
    "OBJECT_TYPE": "PAYLOAD",
    "CLASSIFICATION_TYPE": "U",
    "INTLDES": "02009A",
    "EPOCH": "2023-05-06 04:30:12",
    "EPOCH_MICROSECONDS": "50208",
    "MEAN_MOTION": "14.38333988",
    "ECCENTRICITY": "0.0001296",
    "INCLINATION": "98.2281",
    "RA_OF_ASC_NODE": "97.9231",
    "ARG_OF_PERICENTER": "85.1779",
    "MEAN_ANOMALY": "285.6357",
    "EPHEMERIS_TYPE": "0",
    "ELEMENT_SET_NO": "999",
    "REV_AT_EPOCH": "10992",
    "BSTAR": "0.00013108",
    "MEAN_MOTION_DOT": "0.00000358",
    "MEAN_MOTION_DDOT": "0",
    "FILE": "3902167",
    "TLE_LINE0": "0 ENVISAT",
    "TLE_LINE1": "1 27386U 02009A   23126.18763947  .00000358  00000-0  13108-3 0  9998",
    "TLE_LINE2": "2 27386  98.2281  97.9231 0001296  85.1779 285.6357 14.38333988109921",
    "OBJECT_ID": "2002-009A",
    "OBJECT_NUMBER": "27386",
    "SEMIMAJOR_AXIS": "7142.145",
    "PERIOD": "100.116",
    "APOGEE": "764.936",
    "PERIGEE": "763.085",
    "DECAYED": "0"
  },
  {
    "COMMENT": "GENERATED VIA SPACETRACK.ORG API",
    "ORIGINATOR": "18 SPCS",
    "NORAD_CAT_ID": "27386",
    "OBJECT_NAME": "ENVISAT",
    "OBJECT_TYPE": "PAYLOAD",
    "CLASSIFICATION_TYPE": "U",
    "INTLDES": "02009A",
    "EPOCH": "2023-05-06 13:18:57",
    "EPOCH_MICROSECONDS": "492576",
    "MEAN_MOTION": "14.38334553",
    "ECCENTRICITY": "0.00013",
    "INCLINATION": "98.2281",
    "RA_OF_ASC_NODE": "98.2751",
    "ARG_OF_PERICENTER": "85.4033",
    "MEAN_ANOMALY": "25.6306",
    "EPHEMERIS_TYPE": "0",
    "ELEMENT_SET_NO": "999",
    "REV_AT_EPOCH": "10990",
    "BSTAR": "0.00014658",
    "MEAN_MOTION_DOT": "0.00000405",
    "MEAN_MOTION_DDOT": "0",
    "FILE": "3902298",
    "TLE_LINE0": "0 ENVISAT",
    "TLE_LINE1": "1 27386U 02009A   23126.55483209  .00000405  00000-0  14658-3 0  9993",
    "TLE_LINE2": "2 27386  98.2281  98.2751 0001300  85.4033  25.6306 14.38334553109907",
    "OBJECT_ID": "2002-009A",
    "OBJECT_NUMBER": "27386",
    "SEMIMAJOR_AXIS": "7142.143",
    "PERIOD": "100.116",
    "APOGEE": "764.937",
    "PERIGEE": "763.080",
    "DECAYED": "0"
  },
  {
    "COMMENT": "GENERATED VIA SPACETRACK.ORG API",
    "ORIGINATOR": "18 SPCS",
    "NORAD_CAT_ID": "27386",
    "OBJECT_NAME": "ENVISAT",
    "OBJECT_TYPE": "PAYLOAD",
    "CLASSIFICATION_TYPE": "U",
    "INTLDES": "02009A",
    "EPOCH": "2023-05-06 23:08:00",
    "EPOCH_MICROSECONDS": "489120",
    "MEAN_MOTION": "14.38334732",
    "ECCENTRICITY": "0.0001293",
    "INCLINATION": "98.2282",
    "RA_OF_ASC_NODE": "98.6672",
    "ARG_OF_PERICENTER": "85.4142",
    "MEAN_ANOMALY": "342.5156",
    "EPHEMERIS_TYPE": "0",
    "ELEMENT_SET_NO": "999",
    "REV_AT_EPOCH": "11003",
    "BSTAR": "0.0001397",
    "MEAN_MOTION_DOT": "0.00000384",
    "MEAN_MOTION_DDOT": "0",
    "FILE": "3902583",
    "TLE_LINE0": "0 ENVISAT",
    "TLE_LINE1": "1 27386U 02009A   23126.96389455  .00000384  00000-0  13970-3 0  9998",
    "TLE_LINE2": "2 27386  98.2282  98.6672 0001293  85.4142 342.5156 14.38334732110035",
    "OBJECT_ID": "2002-009A",
    "OBJECT_NUMBER": "27386",
    "SEMIMAJOR_AXIS": "7142.143",
    "PERIOD": "100.116",
    "APOGEE": "764.931",
    "PERIGEE": "763.084",
    "DECAYED": "0"
  },
  {
    "COMMENT": "GENERATED VIA SPACETRACK.ORG API",
    "ORIGINATOR": "18 SPCS",
    "NORAD_CAT_ID": "27386",
    "OBJECT_NAME": "ENVISAT",
    "OBJECT_TYPE": "PAYLOAD",
    "CLASSIFICATION_TYPE": "U",
    "INTLDES": "02009A",
    "EPOCH": "2023-05-07 03:52:31",
    "EPOCH_MICROSECONDS": "751904",
    "MEAN_MOTION": "14.38334787",
    "ECCENTRICITY": "0.0001292",
    "INCLINATION": "98.2282",
    "RA_OF_ASC_NODE": "98.8566",
    "ARG_OF_PERICENTER": "85.2002",
    "MEAN_ANOMALY": "285.2253",
    "EPHEMERIS_TYPE": "0",
    "ELEMENT_SET_NO": "999",
    "REV_AT_EPOCH": "11006",
    "BSTAR": "0.00013846",
    "MEAN_MOTION_DOT": "0.0000038",
    "MEAN_MOTION_DDOT": "0",
    "FILE": "3902903",
    "TLE_LINE0": "0 ENVISAT",
    "TLE_LINE1": "1 27386U 02009A   23127.16147861  .00000380  00000-0  13846-3 0  9992",
    "TLE_LINE2": "2 27386  98.2282  98.8566 0001292  85.2002 285.2253 14.38334787110065",
    "OBJECT_ID": "2002-009A",
    "OBJECT_NUMBER": "27386",
    "SEMIMAJOR_AXIS": "7142.143",
    "PERIOD": "100.116",
    "APOGEE": "764.930",
    "PERIGEE": "763.085",
    "DECAYED": "0"
  },
  {
    "COMMENT": "GENERATED VIA SPACETRACK.ORG API",
    "ORIGINATOR": "18 SPCS",
    "NORAD_CAT_ID": "27386",
    "OBJECT_NAME": "ENVISAT",
    "OBJECT_TYPE": "PAYLOAD",
    "CLASSIFICATION_TYPE": "U",
    "INTLDES": "02009A",
    "EPOCH": "2023-05-07 12:41:19",
    "EPOCH_MICROSECONDS": "602240",
    "MEAN_MOTION": "14.38335034",
    "ECCENTRICITY": "0.0001289",
    "INCLINATION": "98.2282",
    "RA_OF_ASC_NODE": "99.2086",
    "ARG_OF_PERICENTER": "84.9236",
    "MEAN_ANOMALY": "25.8666",
    "EPHEMERIS_TYPE": "0",
    "ELEMENT_SET_NO": "999",
    "REV_AT_EPOCH": "11011",
    "BSTAR": "0.00013671",
    "MEAN_MOTION_DOT": "0.00000375",
    "MEAN_MOTION_DDOT": "0",
    "FILE": "3903113",
    "TLE_LINE0": "0 ENVISAT",
    "TLE_LINE1": "1 27386U 02009A   23127.52869910  .00000375  00000-0  13671-3 0  9998",
    "TLE_LINE2": "2 27386  98.2282  99.2086 0001289  84.9236  25.8666 14.38335034110116",
    "OBJECT_ID": "2002-009A",
    "OBJECT_NUMBER": "27386",
    "SEMIMAJOR_AXIS": "7142.142",
    "PERIOD": "100.116",
    "APOGEE": "764.927",
    "PERIGEE": "763.086",
    "DECAYED": "0"
  },
  {
    "COMMENT": "GENERATED VIA SPACETRACK.ORG API",
    "ORIGINATOR": "18 SPCS",
    "NORAD_CAT_ID": "27386",
    "OBJECT_NAME": "ENVISAT",
    "OBJECT_TYPE": "PAYLOAD",
    "CLASSIFICATION_TYPE": "U",
    "INTLDES": "02009A",
    "EPOCH": "2023-05-07 19:08:19",
    "EPOCH_MICROSECONDS": "317120",
    "MEAN_MOTION": "14.38335261",
    "ECCENTRICITY": "0.0001287",
    "INCLINATION": "98.2282",
    "RA_OF_ASC_NODE": "99.4662",
    "ARG_OF_PERICENTER": "85.035",
    "MEAN_ANOMALY": "336.5187",
    "EPHEMERIS_TYPE": "0",
    "ELEMENT_SET_NO": "999",
    "REV_AT_EPOCH": "11015",
    "BSTAR": "0.00013827",
    "MEAN_MOTION_DOT": "0.0000038",
    "MEAN_MOTION_DDOT": "0",
    "FILE": "3903352",
    "TLE_LINE0": "0 ENVISAT",
    "TLE_LINE1": "1 27386U 02009A   23127.79744580  .00000380  00000-0  13827-3 0  9991",
    "TLE_LINE2": "2 27386  98.2282  99.4662 0001287  85.0350 336.5187 14.38335261110151",
    "OBJECT_ID": "2002-009A",
    "OBJECT_NUMBER": "27386",
    "SEMIMAJOR_AXIS": "7142.141",
    "PERIOD": "100.116",
    "APOGEE": "764.925",
    "PERIGEE": "763.087",
    "DECAYED": "0"
  },
  {
    "COMMENT": "GENERATED VIA SPACETRACK.ORG API",
    "ORIGINATOR": "18 SPCS",
    "NORAD_CAT_ID": "27386",
    "OBJECT_NAME": "ENVISAT",
    "OBJECT_TYPE": "PAYLOAD",
    "CLASSIFICATION_TYPE": "U",
    "INTLDES": "02009A",
    "EPOCH": "2023-05-07 22:28:59",
    "EPOCH_MICROSECONDS": "928672",
    "MEAN_MOTION": "14.38335393",
    "ECCENTRICITY": "0.0001284",
    "INCLINATION": "98.2282",
    "RA_OF_ASC_NODE": "99.5998",
    "ARG_OF_PERICENTER": "84.9846",
    "MEAN_ANOMALY": "337.7515",
    "EPHEMERIS_TYPE": "0",
    "ELEMENT_SET_NO": "999",
    "REV_AT_EPOCH": "11010",
    "BSTAR": "0.0001383",
    "MEAN_MOTION_DOT": "0.0000038",
    "MEAN_MOTION_DDOT": "0",
    "FILE": "3903413",
    "TLE_LINE0": "0 ENVISAT",
    "TLE_LINE1": "1 27386U 02009A   23127.93680473  .00000380  00000-0  13830-3 0  9991",
    "TLE_LINE2": "2 27386  98.2282  99.5998 0001284  84.9846 337.7515 14.38335393110108",
    "OBJECT_ID": "2002-009A",
    "OBJECT_NUMBER": "27386",
    "SEMIMAJOR_AXIS": "7142.141",
    "PERIOD": "100.116",
    "APOGEE": "764.923",
    "PERIGEE": "763.089",
    "DECAYED": "0"
  },
  {
    "COMMENT": "GENERATED VIA SPACETRACK.ORG API",
    "ORIGINATOR": "18 SPCS",
    "NORAD_CAT_ID": "27386",
    "OBJECT_NAME": "ENVISAT",
    "OBJECT_TYPE": "PAYLOAD",
    "CLASSIFICATION_TYPE": "U",
    "INTLDES": "02009A",
    "EPOCH": "2023-05-08 04:55:09",
    "EPOCH_MICROSECONDS": "132384",
    "MEAN_MOTION": "14.38335482",
    "ECCENTRICITY": "0.000129",
    "INCLINATION": "98.2283",
    "RA_OF_ASC_NODE": "99.8568",
    "ARG_OF_PERICENTER": "85.0573",
    "MEAN_ANOMALY": "285.4164",
    "EPHEMERIS_TYPE": "0",
    "ELEMENT_SET_NO": "999",
    "REV_AT_EPOCH": "11021",
    "BSTAR": "0.00013432",
    "MEAN_MOTION_DOT": "0.00000368",
    "MEAN_MOTION_DDOT": "0",
    "FILE": "3903605",
    "TLE_LINE0": "0 ENVISAT",
    "TLE_LINE1": "1 27386U 02009A   23128.20496681  .00000368  00000-0  13432-3 0  9992",
    "TLE_LINE2": "2 27386  98.2283  99.8568 0001290  85.0573 285.4164 14.38335482110211",
    "OBJECT_ID": "2002-009A",
    "OBJECT_NUMBER": "27386",
    "SEMIMAJOR_AXIS": "7142.140",
    "PERIOD": "100.116",
    "APOGEE": "764.927",
    "PERIGEE": "763.084",
    "DECAYED": "0"
  }
]